{
  "type": "FeatureCollection",
  "features": [
    {
      "type": "Feature",
      "properties": {
        "id": "rotterdam",
        "name": "Rotterdam (Europoort / Maasvlakte)",
        "country": "Netherlands",
        "verified": false
      },
      "geometry": {
        "type": "Polygon",
        "coordinates": [[
          [3.95, 51.90],
          [4.25, 51.90],
          [4.25, 51.98],
          [3.95, 51.98],
          [3.95, 51.90]
        ]]
      }
    },
    {
      "type": "Feature",
      "properties": {
        "id": "houston",
        "name": "Houston Ship Channel",
        "country": "United States",
        "verified": false
      },
      "geometry": {
        "type": "Polygon",
        "coordinates": [[
          [-95.30, 29.60],
          [-94.85, 29.60],
          [-94.85, 29.80],
          [-95.30, 29.80],
          [-95.30, 29.60]
        ]]
      }
    },
    {
      "type": "Feature",
      "properties": {
        "id": "corpus_christi",
        "name": "Corpus Christi Ship Channel",
        "country": "United States",
        "verified": false
      },
      "geometry": {
        "type": "Polygon",
        "coordinates": [[
          [-97.45, 27.78],
          [-97.00, 27.78],
          [-97.00, 27.90],
          [-97.45, 27.90],
          [-97.45, 27.78]
        ]]
      }
    }
  ]
}
